{"type": "FeatureCollection", "features": [ {"type": "Feature", "properties": {"norad_id": 33747, "name": "FENGYUN 1C DEB", "group": "fengyun-1c-debris", "lat": 16.090144361353577, "lon": 86.91893899452458, "alt_km": 900.0242309063406, "timestamp": "2025-12-20T16:47:36.573788+00:00", "meta": {"OBJECT_NAME": "FENGYUN 1C DEB", "OBJECT_ID": "1999-025DJL", "EPOCH": "2025-12-20T01:28:07.665312", "MEAN_MOTION": 14.17505011, "ECCENTRICITY": 0.00910261, "INCLINATION": 99.0962, "RA_OF_ASC_NODE": 88.9142, "ARG_OF_PERICENTER": 197.1954, "MEAN_ANOMALY": 162.6131, "EPHEMERIS_TYPE": 0, "CLASSIFICATION_TYPE": "U", "NORAD_CAT_ID": 33747, "ELEMENT_SET_NO": 999, "REV_AT_EPOCH": 90236, "BSTAR": 0.001836775, "MEAN_MOTION_DOT": 3.837e-05, "MEAN_MOTION_DDOT": 0}, "tle": {"line1": "1 33747U 99025DJL 25354.06119983  .00003837  00000+0  18368-2 0  9993", "line2": "2 33747  99.0962  88.9142 0091026 197.1954 162.6131 14.17505011902362"}}, "geometry": {"type": "Point", "coordinates": [86.91893899452458, 16.090144361353577]}}, {"type": "Feature", "properties": {"norad_id": 33748, "name": "FENGYUN 1C DEB", "group": "fengyun-1c-debris", "lat": 77.7526524260973, "lon": -90.11581331051535, "alt_km": 788.4791153605047, "timestamp": "2025-12-20T16:47:36.573798+00:00", "meta": {"OBJECT_NAME": "FENGYUN 1C DEB", "OBJECT_ID": "1999-025DJM", "EPOCH": "2025-12-18T09:00:17.907264", "MEAN_MOTION": 14.32320474, "ECCENTRICITY": 0.0034784, "INCLINATION": 98.5864, "RA_OF_ASC_NODE": 43.4732, "ARG_OF_PERICENTER": 224.1602, "MEAN_ANOMALY": 135.6804, "EPHEMERIS_TYPE": 0, "CLASSIFICATION_TYPE": "U", "NORAD_CAT_ID": 33748, "ELEMENT_SET_NO": 999, "REV_AT_EPOCH": 91474, "BSTAR": 0.001055977, "MEAN_MOTION_DOT": 2.827e-05, "MEAN_MOTION_DDOT": 0}, "tle": {"line1": "1 33748U 99025DJM 25352.37520726  .00002827  00000+0  10560-2 0  9991", "line2": "2 33748  98.5864  43.4732 0034784 224.1602 135.6804 14.32320474914745"}}, "geometry": {"type": "Point", "coordinates": [-90.11581331051535, 77.7526524260973]}}, {"type": "Feature", "properties": {"norad_id": 35088, "name": "FENGYUN 1C DEB", "group": "fengyun-1c-debris", "lat": -43.575135433959645, "lon": 170.84856032382842, "alt_km": 998.6703201979808, "timestamp": "2025-12-20T16:47:36.573808+00:00", "meta": {"OBJECT_NAME": "FENGYUN 1C DEB", "OBJECT_ID": "1999-025DJQ", "EPOCH": "2025-12-20T06:48:25.111872", "MEAN_MOTION": 14.12178698, "ECCENTRICITY": 0.0266593, "INCLINATION": 94.6216, "RA_OF_ASC_NODE": 166.2192, "ARG_OF_PERICENTER": 179.9936, "MEAN_ANOMALY": 180.1297, "EPHEMERIS_TYPE": 0, "CLASSIFICATION_TYPE": "U", "NORAD_CAT_ID": 35088, "ELEMENT_SET_NO": 999, "REV_AT_EPOCH": 58906, "BSTAR": 0.0045418, "MEAN_MOTION_DOT": 0.00011675, "MEAN_MOTION_DDOT": 0}, "tle": {"line1": "1 35088U 99025DJQ 25354.28362398  .00011675  00000+0  45418-2 0  9992", "line2": "2 35088  94.6216 166.2192 0266593 179.9936 180.1297 14.12178698589069"}}, "geometry": {"type": "Point", "coordinates": [170.84856032382842, -43.575135433959645]}}, {"type": "Feature", "properties": {"norad_id": 35089, "name": "FENGYUN 1C DEB", "group": "fengyun-1c-debris", "lat": 71.84816523240194, "lon": -23.074942203174654, "alt_km": 802.7190410582589, "timestamp": "2025-12-20T16:47:36.573820+00:00", "meta": {"OBJECT_NAME": "FENGYUN 1C DEB", "OBJECT_ID": "1999-025DJR", "EPOCH": "2025-12-19T23:31:50.352096", "MEAN_MOTION": 14.19435221, "ECCENTRICITY": 0.0028719, "INCLINATION": 98.559, "RA_OF_ASC_NODE": 3.5754, "ARG_OF_PERICENTER": 44.1764, "MEAN_ANOMALY": 316.1699, "EPHEMERIS_TYPE": 0, "CLASSIFICATION_TYPE": "U", "NORAD_CAT_ID": 35089, "ELEMENT_SET_NO": 999, "REV_AT_EPOCH": 60978, "BSTAR": 0.00043746, "MEAN_MOTION_DOT": 8.82e-06, "MEAN_MOTION_DDOT": 0}, "tle": {"line1": "1 35089U 99025DJR 25353.98044389  .00000882  00000+0  43746-3 0  9997", "line2": "2 35089  98.5590   3.5754 0028719  44.1764 316.1699 14.19435221609787"}}, "geometry": {"type": "Point", "coordinates": [-23.074942203174654, 71.84816523240194]}}, {"type": "Feature", "properties": {"norad_id": 35090, "name": "FENGYUN 1C DEB", "group": "fengyun-1c-debris", "lat": -16.554040549506965, "lon": 10.435381838924378, "alt_km": 799.0670677896678, "timestamp": "2025-12-20T16:47:36.573829+00:00", "meta": {"OBJECT_NAME": "FENGYUN 1C DEB", "OBJECT_ID": "1999-025DJS", "EPOCH": "2025-12-15T11:31:21.871200", "MEAN_MOTION": 14.17610468, "ECCENTRICITY": 0.00548506, "INCLINATION": 99.1994, "RA_OF_ASC_NODE": 2.2725, "ARG_OF_PERICENTER": 7.0781, "MEAN_ANOMALY": 353.1155, "EPHEMERIS_TYPE": 0, "CLASSIFICATION_TYPE": "U", "NORAD_CAT_ID": 35090, "ELEMENT_SET_NO": 999, "REV_AT_EPOCH": 66289, "BSTAR": 0.0011364277, "MEAN_MOTION_DOT": 2.298e-05, "MEAN_MOTION_DDOT": 0}, "tle": {"line1": "1 35090U 99025DJS 25349.48011425  .00002298  00000+0  11364-2 0  9997", "line2": "2 35090  99.1994   2.2725 0054850   7.0781 353.1155 14.17610468662895"}}, "geometry": {"type": "Point", "coordinates": [10.435381838924378, -16.554040549506965]}}, {"type": "Feature", "properties": {"norad_id": 35091, "name": "FENGYUN 1C DEB", "group": "fengyun-1c-debris", "lat": 42.87687320773731, "lon": -72.61645853473036, "alt_km": 706.5613159147379, "timestamp": "2025-12-20T16:47:36.573839+00:00", "meta": {"OBJECT_NAME": "FENGYUN 1C DEB", "OBJECT_ID": "1999-025DJT", "EPOCH": "2025-12-19T05:40:00.748992", "MEAN_MOTION": 14.61713207, "ECCENTRICITY": 0.0049136, "INCLINATION": 98.5976, "RA_OF_ASC_NODE": 97.7869, "ARG_OF_PERICENTER": 271.6969, "MEAN_ANOMALY": 87.8603, "EPHEMERIS_TYPE": 0, "CLASSIFICATION_TYPE": "U", "NORAD_CAT_ID": 35091, "ELEMENT_SET_NO": 999, "REV_AT_EPOCH": 90022, "BSTAR": 0.0018836, "MEAN_MOTION_DOT": 9.504e-05, "MEAN_MOTION_DDOT": 0}, "tle": {"line1": "1 35091U 99025DJT 25353.23611978  .00009504  00000+0  18836-2 0  9993", "line2": "2 35091  98.5976  97.7869 0049136 271.6969  87.8603 14.61713207900220"}}, "geometry": {"type": "Point", "coordinates": [-72.61645853473036, 42.87687320773731]}}, {"type": "Feature", "properties": {"norad_id": 35102, "name": "FENGYUN 1C DEB", "group": "fengyun-1c-debris", "lat": 70.44572682391592, "lon": -20.082213590148815, "alt_km": 745.0814741174627, "timestamp": "2025-12-20T16:47:36.573854+00:00", "meta": {"OBJECT_NAME": "FENGYUN 1C DEB", "OBJECT_ID": "1999-025DKE", "EPOCH": "2025-12-13T06:19:02.409312", "MEAN_MOTION": 14.28874039, "ECCENTRICITY": 0.00607637, "INCLINATION": 98.4802, "RA_OF_ASC_NODE": 357.5239, "ARG_OF_PERICENTER": 90.2418, "MEAN_ANOMALY": 270.5727, "EPHEMERIS_TYPE": 0, "CLASSIFICATION_TYPE": "U", "NORAD_CAT_ID": 35102, "ELEMENT_SET_NO": 999, "REV_AT_EPOCH": 64920, "BSTAR": 0.00073405609, "MEAN_MOTION_DOT": 1.848e-05, "MEAN_MOTION_DDOT": 0}, "tle": {"line1": "1 35102U 99025DKE 25347.26322233  .00001848  00000+0  73406-3 0  9993", "line2": "2 35102  98.4802 357.5239 0060763  90.2418 270.5727 14.28874039649201"}}, "geometry": {"type": "Point", "coordinates": [-20.082213590148815, 70.44572682391592]}}, {"type": "Feature", "properties": {"norad_id": 35104, "name": "FENGYUN 1C DEB", "group": "fengyun-1c-debris", "lat": -8.801093552296651, "lon": 2.520157234061076, "alt_km": 841.8559459497383, "timestamp": "2025-12-20T16:47:36.573864+00:00", "meta": {"OBJECT_NAME": "FENGYUN 1C DEB", "OBJECT_ID": "1999-025DKG", "EPOCH": "2025-12-20T06:46:17.192352", "MEAN_MOTION": 14.20340868, "ECCENTRICITY": 0.0031452, "INCLINATION": 98.5954, "RA_OF_ASC_NODE": 0.7725, "ARG_OF_PERICENTER": 119.6618, "MEAN_ANOMALY": 257.8395, "EPHEMERIS_TYPE": 0, "CLASSIFICATION_TYPE": "U", "NORAD_CAT_ID": 35104, "ELEMENT_SET_NO": 999, "REV_AT_EPOCH": 89874, "BSTAR": 0.00030234, "MEAN_MOTION_DOT": 6.08e-06, "MEAN_MOTION_DDOT": 0}, "tle": {"line1": "1 35104U 99025DKG 25354.28214343  .00000608  00000+0  30234-3 0  9992", "line2": "2 35104  98.5954   0.7725 0031452 119.6618 257.8395 14.20340868898744"}}, "geometry": {"type": "Point", "coordinates": [2.520157234061076, -8.801093552296651]}}, {"type": "Feature", "properties": {"norad_id": 35105, "name": "FENGYUN 1C DEB", "group": "fengyun-1c-debris", "lat": 26.077679612170368, "lon": -28.247434104352404, "alt_km": 659.888099925417, "timestamp": "2025-12-20T16:47:36.573873+00:00", "meta": {"OBJECT_NAME": "FENGYUN 1C DEB", "OBJECT_ID": "1999-025DKH", "EPOCH": "2025-12-20T05:02:40.480800", "MEAN_MOTION": 14.45398684, "ECCENTRICITY": 0.0112505, "INCLINATION": 98.9441, "RA_OF_ASC_NODE": 335.6575, "ARG_OF_PERICENTER": 32.3245, "MEAN_ANOMALY": 328.4774, "EPHEMERIS_TYPE": 0, "CLASSIFICATION_TYPE": "U", "NORAD_CAT_ID": 35105, "ELEMENT_SET_NO": 999, "REV_AT_EPOCH": 94601, "BSTAR": 0.00026476968, "MEAN_MOTION_DOT": 9.53e-06, "MEAN_MOTION_DDOT": 0}, "tle": {"line1": "1 35105U 99025DKH 25354.21019075  .00000953  00000+0  26477-3 0  9998", "line2": "2 35105  98.9441 335.6575 0112505  32.3245 328.4774 14.45398684946015"}}, "geometry": {"type": "Point", "coordinates": [-28.247434104352404, 26.077679612170368]}}, {"type": "Feature", "properties": {"norad_id": 35108, "name": "FENGYUN 1C DEB", "group": "fengyun-1c-debris", "lat": -25.830191890951458, "lon": -5.578932506431557, "alt_km": 833.2695368479044, "timestamp": "2025-12-20T16:47:36.573885+00:00", "meta": {"OBJECT_NAME": "FENGYUN 1C DEB", "OBJECT_ID": "1999-025DKL", "EPOCH": "2025-12-14T17:32:43.265184", "MEAN_MOTION": 14.06913766, "ECCENTRICITY": 0.01353379, "INCLINATION": 98.801, "RA_OF_ASC_NODE": 344.3103, "ARG_OF_PERICENTER": 55.9263, "MEAN_ANOMALY": 305.4667, "EPHEMERIS_TYPE": 0, "CLASSIFICATION_TYPE": "U", "NORAD_CAT_ID": 35108, "ELEMENT_SET_NO": 999, "REV_AT_EPOCH": 89266, "BSTAR": 0.00032621951, "MEAN_MOTION_DOT": 5.49e-06, "MEAN_MOTION_DDOT": 0}, "tle": {"line1": "1 35108U 99025DKL 25348.73105631  .00000549  00000+0  32622-3 0  9995", "line2": "2 35108  98.8010 344.3103 0135337  55.9263 305.4667 14.06913766892660"}}, "geometry": {"type": "Point", "coordinates": [-5.578932506431557, -25.830191890951458]}}]}